NORAD_CAT_ID,OBJECT_NAME,OBJECT_TYPE,EPOCH,MEAN_MOTION,ECCENTRICITY,INCLINATION,RA_OF_ASC_NODE,ARG_OF_PERICENTER,MEAN_ANOMALY,BSTAR,MEAN_MOTION_DOT,MEAN_MOTION_DDOT,TLE_LINE0,TLE_LINE1,TLE_LINE2,SEMIMAJOR_AXIS,PERIOD,APOGEE,PERIGEE,DECAYED
55270.0,STARLINK-5301,PAYLOAD,2023-09-07 05:20:30,14.98321476,0.0002911,70.0003,190.3127,268.7319,91.3506,0.00012073,1.348e-05,0.0,0 STARLINK-5301,1 55270U 23010B   23250.22257065  .00001348  00000-0  12073-3 0  9998,2 55270  70.0003 190.3127 0002911 268.7319  91.3506 14.98321476 35808,6950.219,96.108,574.107,570.061,0.0
55270.0,STARLINK-5301,PAYLOAD,2023-09-07 19:45:42,14.98329086,0.0002902,70.0009,188.7987,268.8558,91.2268,-2.7992e-05,-4.27e-06,0.0,0 STARLINK-5301,1 55270U 23010B   23250.82340808 -.00000427  00000-0 -27992-4 0  9998,2 55270  70.0009 188.7987 0002902 268.8558  91.2268 14.98329086 35893,6950.196,96.107,574.078,570.044,0.0
55270.0,STARLINK-5301,PAYLOAD,2023-09-08 02:10:14,14.98328606,0.000285,70.0007,188.1246,267.0931,92.9902,5.1808e-05,5.25e-06,0.0,0 STARLINK-5301,1 55270U 23010B   23251.09045040  .00000525  00000-0  51808-4 0  9998,2 55270  70.0007 188.1246 0002850 267.0931  92.9902 14.98328606 35622,6950.197,96.107,574.043,570.081,0.0
55270.0,STARLINK-5301,PAYLOAD,2023-09-08 05:22:30,14.9833074,0.0002785,70.001,187.7882,267.4117,92.6723,7.3404e-05,7.83e-06,0.0,0 STARLINK-5301,1 55270U 23010B   23251.22396864  .00000783  00000-0  73404-4 0  9998,2 55270  70.0010 187.7882 0002785 267.4117  92.6723 14.98330740 35950,6950.191,96.107,573.991,570.12,0.0
55270.0,STARLINK-5301,PAYLOAD,2023-09-09 02:12:16,14.98322473,0.0002818,70.0011,185.6003,267.7252,92.3584,-2.9237e-05,-4.42e-06,0.0,0 STARLINK-5301,1 55270U 23010B   23252.09185777 -.00000442  00000-0 -29237-4 0  9992,2 55270  70.0011 185.6003 0002818 267.7252  92.3584 14.98322473 35779,6950.216,96.107,574.04,570.123,0.0
55270.0,STARLINK-5301,PAYLOAD,2023-09-09 13:25:12,14.98327917,0.0002808,70.0012,184.422,267.8997,92.1841,3.263e-05,2.96e-06,0.0,0 STARLINK-5301,1 55270U 23010B   23252.55917417  .00000296  00000-0  32630-4 0  9993,2 55270  70.0012 184.4220 0002808 267.8997  92.1841 14.98327917 36159,6950.199,96.107,574.016,570.113,0.0
55270.0,STARLINK-5301,PAYLOAD,2023-09-10 02:14:16,14.98340657,0.0002981,70.0007,183.0755,270.4019,89.6799,0.0001093,1.212e-05,0.0,0 STARLINK-5301,1 55270U 23010B   23253.09324284  .00001212  00000-0  10930-3 0  9994,2 55270  70.0007 183.0755 0002981 270.4019  89.6799 14.98340657 35921,6950.16,96.106,574.097,569.953,0.0
55270.0,STARLINK-5301,PAYLOAD,2023-09-10 07:02:39,14.9834504,0.0002922,70.0009,182.5704,270.3201,89.7623,0.00015908,1.806e-05,0.0,0 STARLINK-5301,1 55270U 23010B   23253.29351764  .00001806  00000-0  15908-3 0  9998,2 55270  70.0009 182.5704 0002922 270.3201  89.7623 14.98345040 36264,6950.146,96.106,574.042,569.981,0.0
55270.0,STARLINK-5301,PAYLOAD,2023-09-11 02:16:18,14.98322055,0.0002848,70.0011,180.5513,269.4687,90.6146,4.3698e-05,4.28e-06,0.0,0 STARLINK-5301,1 55270U 23010B   23254.09465555  .00000428  00000-0  43698-4 0  9998,2 55270  70.0011 180.5513 0002848 269.4687  90.6146 14.98322055 36078,6950.217,96.108,574.062,570.103,0.0
55270.0,STARLINK-5301,PAYLOAD,2023-09-11 11:53:06,14.98329561,0.0002967,70.0007,179.5417,269.3339,90.748,4.9716e-05,5e-06,0.0,0 STARLINK-5301,1 55270U 23010B   23254.49521146  .00000500  00000-0  49716-4 0  9999,2 55270  70.0007 179.5417 0002967 269.3339  90.7480 14.98329561 36441,6950.194,96.107,574.121,569.997,0.0
55270.0,STARLINK-5301,PAYLOAD,2023-09-11 18:17:38,14.98333692,0.0003108,70.0007,178.8681,269.6279,90.4524,3.7516e-05,3.55e-06,0.0,0 STARLINK-5301,1 55270U 23010B   23254.76224834  .00000355  00000-0  37516-4 0  9996,2 55270  70.0007 178.8681 0003108 269.6279  90.4524 14.98333692 36176,6950.181,96.107,574.207,569.886,0.0
55270.0,STARLINK-5301,PAYLOAD,2023-09-12 02:18:18,14.98342066,0.0002958,70.0007,178.0264,272.6798,87.4023,5.9628e-05,6.19e-06,0.0,0 STARLINK-5301,1 55270U 23010B   23255.09604172  .00000619  00000-0  59628-4 0  9991,2 55270  70.0007 178.0264 0002958 272.6798  87.4023 14.98342066 36228,6950.156,96.106,574.076,569.965,0.0
55270.0,STARLINK-5301,PAYLOAD,2023-09-12 03:54:25,14.98343951,0.0002983,70.001,177.8583,274.9096,85.1722,8.3712e-05,9.06e-06,0.0,0 STARLINK-5301,1 55270U 23010B   23255.16279967  .00000906  00000-0  83712-4 0  9999,2 55270  70.0010 177.8583 0002983 274.9096  85.1722 14.98343951 36547,6950.15,96.106,574.088,569.942,0.0
55270.0,STARLINK-5301,PAYLOAD,2023-09-12 21:31:54,14.98330293,0.0002746,70.001,176.0068,267.7474,92.337,0.00013165,1.478e-05,0.0,0 STARLINK-5301,1 55270U 23010B   23255.89716420  .00001478  00000-0  13165-3 0  9998,2 55270  70.0010 176.0068 0002746 267.7474  92.3370 14.98330293 36659,6950.192,96.107,573.966,570.148,0.0
55270.0,STARLINK-5301,PAYLOAD,2023-09-13 02:20:19,14.98331708,0.0002632,70.0015,175.5021,268.0437,92.0421,0.0001658,1.886e-05,0.0,0 STARLINK-5301,1 55270U 23010B   23256.09744252  .00001886  00000-0  16580-3 0  9992,2 55270  70.0015 175.5021 0002632 268.0437  92.0421 14.98331708 36379,6950.188,96.107,573.882,570.223,0.0
55270.0,STARLINK-5301,PAYLOAD,2023-09-13 03:56:27,14.98332255,0.0002375,70.002,175.3339,261.7535,98.3355,0.00019853,2.277e-05,0.0,0 STARLINK-5301,1 55270U 23010B   23256.16420168  .00002277  00000-0  19853-3 0  9998,2 55270  70.0020 175.3339 0002375 261.7535  98.3355 14.98332255 36696,6950.186,96.107,573.702,570.4,0.0
55270.0,STARLINK-5301,PAYLOAD,2023-09-13 21:33:56,14.98328589,0.00029,70.0012,173.4827,270.4736,89.6091,-9.2352e-05,-1.195e-05,0.0,0 STARLINK-5301,1 55270U 23010B   23256.89857000 -.00001195  00000-0 -92352-4 0  9993,2 55270  70.0012 173.4827 0002900 270.4736  89.6091 14.98328589 36800,6950.197,96.107,574.078,570.047,0.0
55270.0,STARLINK-5301,PAYLOAD,2023-09-14 02:22:20,14.98328839,0.0002915,70.0004,172.9768,270.147,89.9355,-6.6554e-05,-8.87e-06,0.0,0 STARLINK-5301,1 55270U 23010B   23257.09884926 -.00000887  00000-0 -66554-4 0  9995,2 55270  70.0004 172.9768 0002915 270.1470  89.9355 14.98328839 36520,6950.196,96.107,574.087,570.035,0.0
55270.0,STARLINK-5301,PAYLOAD,2023-09-14 03:58:28,14.98329764,0.0002897,70.0005,172.8086,270.1798,89.9029,-5.2815e-05,-7.23e-06,0.0,0 STARLINK-5301,1 55270U 23010B   23257.16560847 -.00000723  00000-0 -52815-4 0  9990,2 55270  70.0005 172.8086 0002897 270.1798  89.9029 14.98329764 36846,6950.194,96.107,574.072,570.045,0.0
55270.0,STARLINK-5301,PAYLOAD,2023-09-14 21:35:57,14.98326294,0.0002869,70.0006,170.9562,267.771,92.3121,-2.1627e-05,-3.51e-06,0.0,0 STARLINK-5301,1 55270U 23010B   23257.89997041 -.00000351  00000-0 -21627-4 0  9994,2 55270  70.0006 170.9562 0002869 267.7710  92.3121 14.98326294 36958,6950.204,96.107,574.063,570.075,0.0
55270.0,STARLINK-5301,PAYLOAD,2023-09-15 04:00:29,14.98334618,0.0002926,70.0008,170.2837,270.3224,89.76,4.0983e-05,3.96e-06,0.0,0 STARLINK-5301,1 55270U 23010B   23258.16700363  .00000396  00000-0  40983-4 0  9997,2 55270  70.0008 170.2837 0002926 270.3224  89.7600 14.98334618 36683,6950.179,96.107,574.077,570.01,0.0
55270.0,STARLINK-5301,PAYLOAD,2023-09-15 05:36:37,14.98332299,0.0002824,70.0012,170.1163,268.2637,91.8199,8.0308e-05,8.65e-06,0.0,0 STARLINK-5301,1 55270U 23010B   23258.23376524  .00000865  00000-0  80308-4 0  9999,2 55270  70.0012 170.1163 0002824 268.2637  91.8199 14.98332299 37007,6950.186,96.107,574.014,570.088,0.0
55270.0,STARLINK-5301,PAYLOAD,2023-09-16 04:02:29,14.98332567,0.0002907,70.001,167.7601,271.5011,88.5815,0.00022841,2.634e-05,0.0,0 STARLINK-5301,1 55270U 23010B   23259.16840164  .00002634  00000-0  22841-3 0  9991,2 55270  70.0010 167.7601 0002907 271.5011  88.5815 14.98332567 36835,6950.185,96.107,574.07,570.03,0.0
55270.0,STARLINK-5301,PAYLOAD,2023-09-16 18:27:43,14.98317927,0.000215,70.0013,166.246,260.3706,99.721,0.00025793,2.985e-05,0.0,0 STARLINK-5301,1 55270U 23010B   23259.76924909  .00002985  00000-0  25793-3 0  9995,2 55270  70.0013 166.2460 0002150 260.3706  99.7210 14.98317927 36928,6950.23,96.108,573.59,570.601,0.0
55270.0,STARLINK-5301,PAYLOAD,2023-09-17 04:04:31,14.98321376,0.0002231,70.0013,165.2345,266.5279,93.5624,0.00029641,3.445e-05,0.0,0 STARLINK-5301,1 55270U 23010B   23260.16980905  .00003445  00000-0  29641-3 0  9997,2 55270  70.0013 165.2345 0002231 266.5279  93.5624 14.98321376 37297,6950.22,96.108,573.635,570.534,0.0
55270.0,STARLINK-5301,PAYLOAD,2023-09-17 18:29:43,14.98337452,0.0002636,70.0013,163.7199,274.1195,85.9663,3.8202e-05,3.63e-06,0.0,0 STARLINK-5301,1 55270U 23010B   23260.77064149  .00000363  00000-0  38202-4 0  9997,2 55270  70.0013 163.7199 0002636 274.1195  85.9663 14.98337452 37074,6950.17,96.107,573.867,570.203,0.0
55270.0,STARLINK-5301,PAYLOAD,2023-09-18 04:06:31,14.98340046,0.0002901,70.0011,162.7104,274.7153,85.3675,0.00010053,1.107e-05,0.0,0 STARLINK-5301,1 55270U 23010B   23261.17119652  .00001107  00000-0  10053-3 0  9992,2 55270  70.0011 162.7104 0002901 274.7153  85.3675 14.98340046 37443,6950.162,96.106,574.043,570.011,0.0
55270.0,STARLINK-5301,PAYLOAD,2023-09-18 20:07:52,14.98330034,0.0002701,70.0016,161.0275,265.9163,94.1687,9.0537e-05,9.87e-06,0.0,0 STARLINK-5301,1 55270U 23010B   23261.83880074  .00000987  00000-0  90537-4 0  9999,2 55270  70.0016 161.0275 0002701 265.9163  94.1687 14.98330034 37548,6950.193,96.107,573.935,570.181,0.0
55270.0,STARLINK-5301,PAYLOAD,2023-09-19 02:32:24,14.98329488,0.0002584,70.0018,160.3539,264.9684,95.118,0.00011003,1.22e-05,0.0,0 STARLINK-5301,1 55270U 23010B   23262.10584098  .00001220  00000-0  11003-3 0  9998,2 55270  70.0018 160.3539 0002584 264.9684  95.1180 14.98329488 37271,6950.194,96.107,573.855,570.264,0.0
55270.0,STARLINK-5301,PAYLOAD,2023-09-19 18:33:44,14.98362268,0.0002521,70.0017,158.6704,259.204,100.8836,-0.00035374,-4.315e-05,0.0,0 STARLINK-5301,1 55270U 23010B   23262.77343021 -.00004315  00000-0 -35374-3 0  9997,2 55270  70.0017 158.6704 0002521 259.2040 100.8836 14.98362268 37374,6950.093,96.105,573.71,570.206,0.0
